satname,norad_id,inclination_deg,eccentricity,mean_motion_rev_per_day,perigee_km,apogee_km,l1,l2
STARLINK-1300,45374,53.0537,0.0001206,15.06364671,546.4846282564813,548.1550484458912,1 45374U 20019Q   25297.75094214  .00009697  00000+0  66965-3 0  9997,2 45374  53.0537  56.8700 0001206  68.3071 291.8046 15.06364671309245
STARLINK-1302,45375,53.0564,0.0001312,15.06378324,546.369378105961,548.1866070000069,1 45375U 20019R   25297.76567333  .00004748  00000+0  33765-3 0  9990,2 45375  53.0564  56.8049 0001312  84.9950 275.1189 15.06378324309243
STARLINK-1304,45376,53.0543,0.0001278,15.0639948,546.328091914459,548.0982114132248,1 45376U 20019S   25297.65140223  .00003118  00000+0  22812-3 0  9995,2 45376  53.0543  57.3165 0001278  87.6063 272.5072 15.06399480309228
STARLINK-1305,45377,53.053,0.000129,15.31072101,471.72862244531007,473.4961157825428,1 45377U 20019T   25297.83336806  .00044582  00000+0  14681-2 0  9994,2 45377  53.0530  55.3607 0001290  79.7103 274.1207 15.31072101  5839
STARLINK-1319,45379,53.0559,7.92e-05,15.06421256,546.597929679494,547.694894571975,1 45379U 20019V   25297.73615340  .00001786  00000+0  13868-3 0  9994,2 45379  53.0559  56.9394 0000792  94.7626 265.3453 15.06421256309243
STARLINK-1266,45383,53.0559,9.98e-05,15.0639161,546.5461198468793,547.9284245516101,1 45383U 20019Z   25297.67167855  .00000411  00000+0  46491-4 0  9998,2 45383  53.0559  37.2280 0000998  67.3908 292.7186 15.06391610309507
STARLINK-1267,45384,53.0559,0.0001176,15.06388849,546.4313093485016,548.0601593676238,1 45384U 20019AA  25297.65701007  .00002150  00000+0  16324-3 0  9993,2 45384  53.0559  37.9508 0001176  91.7373 268.3750 15.06388849309498
STARLINK-1272,45386,53.0557,0.0001249,15.29283439,477.09679644503285,478.80944775753414,1 45386U 20019AC  25297.83336806  .01008726  00000+0  32220-1 0  9993,2 45386  53.0557  35.5916 0001249  73.5197 233.8366 15.29283439  5800
STARLINK-1274,45387,53.037,0.0004093,15.28362695,477.8991012668048,483.51375049523176,1 45387U 20019AD  25297.52814115  .00056196  00000+0  20046-2 0  9991,2 45387  53.0370  24.2284 0004093 209.3033 150.7736 15.28362695309676
STARLINK-1280,45388,53.0596,9.83e-05,15.32619724,467.3267417438774,468.67269222243704,1 45388U 20019AE  25297.83336806  .01169388  00000+0  33734-1 0  9998,2 45388  53.0596  55.3188 0000983  75.4984  62.6498 15.32619724  5803
STARLINK-1283,45389,53.055,0.0001637,15.29353836,476.62041990434136,478.86503492709744,1 45389U 20019AF  25297.67023186  .00040261  00000+0  14000-2 0  9998,2 45389  53.0550  34.8077 0001637  41.5543 318.5581 15.29353836309544
STARLINK-1284,45390,53.054,0.0001377,15.06396285,546.2693218373433,548.176565965895,1 45390U 20019AG  25297.67535705  .00000996  00000+0  85775-4 0  9995,2 45390  53.0540  37.2118 0001377  92.8342 267.2805 15.06396285309500
STARLINK-1292,45394,53.0456,0.0008154,15.90040678,296.72180109801775,307.61604399650787,1 45394U 20019AL  25297.83336806  .00301172  44430-4  98792-3 0  9990,2 45394  53.0456 350.7657 0008154 351.5981 163.6145 15.90040678  6027
STARLINK-1297,45395,53.0557,0.000161,15.06396725,546.1066126259238,548.3365780936301,1 45395U 20019AM  25297.57953832  .00002638  00000+0  19595-3 0  9995,2 45395  53.0557  37.6402 0001610  86.6218 273.4955 15.06396725308677
STARLINK-1307,45397,53.0554,0.0001323,15.06387666,546.3331315143405,548.1655887452307,1 45397U 20019AP  25297.57215623 -.00000583  00000+0 -20226-4 0  9999,2 45397  53.0554  37.6722 0001323  97.5402 262.5737 15.06387666309311
STARLINK-1312,45398,53.0441,0.0005211,15.93149219,289.9998073955185,296.95296286550274,1 45398U 20019AQ  25297.83336806  .00422958  80795-4  11800-2 0  9998,2 45398  53.0441 350.1583 0005211 345.6721  41.0569 15.93149219  6038
STARLINK-1255,45399,53.0498,0.0001448,15.29098645,477.5126487306961,479.4983323959632,1 45399U 20019AR  25297.83336806  .00008663  00000+0  31462-3 0  9995,2 45399  53.0498  25.1470 0001448  31.4500  99.1749 15.29098645  5812
STARLINK-1259,45403,53.0386,0.0004155,16.1639345,226.61679664686017,232.10762849250477,1 45403U 20019AV  25297.63445324  .01234082  11266-2  83395-3 0  9993,2 45403  53.0386 329.4482 0004155  33.7313 326.3987 16.16393450310257
STARLINK-1260,45404,53.0574,0.0002353,15.0639042,545.6113779896705,548.8704608385469,1 45404U 20019AW  25297.50673448  .00000960  00000+0  83376-4 0  9996,2 45404  53.0574  27.9657 0002353 140.0811 220.0351 15.06390420309338
STARLINK-1263,45405,53.0577,0.0001529,15.06395824,546.1654690549358,548.283244557847,1 45405U 20019AX  25297.55834382 -.00000293  00000+0 -74065-6 0  9996,2 45405  53.0577  27.7390 0001529  94.4332 265.6832 15.06395824309341
STARLINK-1265,45406,53.0559,0.000145,15.0639507,546.2224899876164,548.2308454512558,1 45406U 20019AY  25297.63204878 -.00000379  00000+0 -65308-5 0  9991,2 45406  53.0559  27.4068 0001450 102.7173 257.3978 15.06395070309353
STARLINK-1278,45408,53.0561,0.00014,15.3066021,472.8820326439436,474.80058657063455,1 45408U 20019BA  25297.83336806  .01180071  00000+0  36150-1 0  9998,2 45408  53.0561  55.5261 0001400  79.0070 291.8099 15.30660210  5822
STARLINK-1296,45412,53.0546,0.0001254,15.06394552,546.3598145209271,548.0966961269623,1 45412U 20019BE  25297.63573973  .00000837  00000+0  75087-4 0  9994,2 45412  53.0546  27.3876 0001254  83.6973 276.4159 15.06394552309356
STARLINK-1298,45413,53.0501,0.0007393,15.5085178,409.21626033418397,419.25946580671916,1 45413U 20019BF  25297.48909170  .00114530  00000+0  19274-2 0  9990,2 45413  53.0501   6.4293 0007393 274.6233  85.3931 15.50851780309737
STARLINK-1309,45414,53.054,0.0001404,15.0639277,546.2613948869357,548.2060389842509,1 45414U 20019BG  25297.65047921  .00006431  00000+0  45033-3 0  9990,2 45414  53.0540  27.3231 0001404 106.4777 253.6366 15.06392770309346
STARLINK-1316,45415,53.0559,0.0001323,15.06393602,546.3149407477122,548.1473931646888,1 45415U 20019BH  25297.54358900 -.00001766  00000+0 -99745-4 0  9999,2 45415  53.0559  27.8008 0001323  97.3718 262.7421 15.06393602309367
STARLINK-1318,45416,53.0533,0.0004252,15.59498489,386.23008832271535,391.9849530631136,1 45416U 20019BJ  25297.57638078  .00056276  00000+0  69809-3 0  9991,2 45416  53.0533 357.9406 0004252  13.5446 346.5680 15.59498489309771
STARLINK-1286,45417,53.0539,8.12e-05,15.23914454,493.4890330679427,494.6050757583789,1 45417U 20019BK  25297.83336806  .01691090  00000+0  62329-1 0  9993,2 45417  53.0539  55.8743 0000812  89.6429 160.7441 15.23914454  5779
STARLINK-1308,45419,53.0546,0.0001212,15.06392553,546.3950270032392,548.0737370262395,1 45419U 20019BM  25297.77672454  .00000514  00000+0  53409-4 0  9996,2 45419  53.0546  56.7541 0001212  82.6903 277.4223 15.06392553308984
STARLINK-1329,45531,53.0552,0.0001369,15.06413787,546.2212286583499,548.1173775241359,1 45531U 20025A   25297.54635069  .00005606  00000+0  39476-3 0  9998,2 45531  53.0552 357.7912 0001369  97.0083 263.1062 15.06413787304571
STARLINK-1338,45532,53.0551,0.0001178,15.06404646,546.3815142712838,548.0131230367579,1 45532U 20025B   25297.49106508  .00001328  00000+0  10801-3 0  9992,2 45532  53.0551 358.0367 0001178 115.0315 245.0796 15.06404646304562
STARLINK-1350,45535,53.0749,0.000127,15.3205054,468.82557827460187,470.5649276668555,1 45535U 20025E   25297.44011564  .00020379  00000+0  65941-3 0  9999,2 45535  53.0749 311.1071 0001270  56.1416 303.9705 15.32050540305245
STARLINK-1362,45538,53.0559,0.000144,15.06404521,546.2004535620226,548.1949499561288,1 45538U 20025H   25297.45692205  .00001865  00000+0  14407-3 0  9990,2 45538  53.0559 357.9076 0001440  97.9410 262.1742 15.06404521304560
STARLINK-1368,45540,53.0548,0.0001411,15.06390216,546.2643737387743,548.2187155640759,1 45540U 20025K   25297.46158257 -.00000136  00000+0  97760-5 0  9994,2 45540  53.0548 358.1702 0001411  88.8291 271.2860 15.06390216304550
STARLINK-1371,45542,53.0561,0.0001447,15.06403705,546.1981063769417,548.2022989633952,1 45542U 20025M   25297.56479135 -.00001009  00000+0 -48835-4 0  9997,2 45542  53.0561 357.7077 0001447  92.9739 267.1416 15.06403705304570
STARLINK-1372,45543,53.0559,0.0001331,15.06401038,546.2866131499759,548.1301400892316,1 45543U 20025N   25297.46895488 -.00001541  00000+0 -84567-4 0  9993,2 45543  53.0559 358.1361 0001331  91.6867 268.4275 15.06401038303651
STARLINK-1373,45544,53.0552,0.0001313,15.06394098,546.3203461365729,548.138947418016,1 45544U 20025P   25297.55374425  .00001025  00000+0  87675-4 0  9995,2 45544  53.0552 357.7589 0001313  98.5804 261.5333 15.06394098304577
STARLINK-1294,45551,53.0495,0.0008184,15.58318971,386.9808107206327,398.0630252375804,1 45551U 20025W   25297.69946007  .00075239  00000+0  97033-3 0  9995,2 45551  53.0495 292.7770 0008184  31.0742 329.0752 15.58318971305509
STARLINK-1325,45554,53.0575,0.0002204,15.56863862,395.24683572316644,398.2332015129732,1 45554U 20025Z   25297.41138804  .00111988  00000+0  15167-2 0  9995,2 45554  53.0575 287.1144 0002204  96.9742 263.1520 15.56863862305560
STARLINK-1327,45555,53.0551,0.0001354,15.06399995,546.2738810657374,548.1492654593767,1 45555U 20025AA  25297.39338794 -.00001393  00000+0 -74615-4 0  9998,2 45555  53.0551 338.4759 0001354  89.5210 270.5934 15.06399995304825
STARLINK-1336,45557,53.0236,0.0007197,16.37474329,167.81525908964068,177.24428884408917,1 45557U 20025AC  25298.00386097  .07330743  12203-4  71361-3 0  9994,2 45557  53.0236 268.6575 0007197 212.0850 147.9758 16.37474329305856
STARLINK-1356,45564,53.0541,0.0001811,15.0640232,545.950268145406,548.4586268176836,1 45564U 20025AK  25297.39707225 -.00001350  00000+0 -71714-4 0  9997,2 45564  53.0541 338.4568 0001811  91.4644 268.6552 15.06402320304824
STARLINK-1357,45565,53.0631,0.0006424,15.30940443,468.60395749061263,477.40630490077365,1 45565U 20025AL  25297.80139647  .00079970  00000+0  26210-2 0  9991,2 45565  53.0631 322.8701 0006424 315.4262  44.6221 15.30940443305085
